1 43013U 17073A   25340.57619516  .00000195  00000+0  11358-3 0  9998
2 43013  98.7590 276.9407 0002104  96.0107 264.1309 14.19523173417144
